STARLINK-3682           
1 52140U 22029BE  26068.38441111  .00000541  00000+0  52078-4 0  9997
2 52140  53.2170  70.4893 0001435  76.5583 283.5569 15.08848073220893
DISKSAT A               
1 67222U 25305D   26068.54789610  .00013824  00000+0  90452-3 0  9996
2 67222  45.0023 251.6019 0004082 318.1929  41.8634 15.07741062 12266
